CALSPHERE 1             
1 00900U 64063C   22344.71913112  .00000636  00000+0  66621-3 0  9996
2 00900  90.1830  44.2045 0026864 207.3533 271.7651 13.73998588894865
CALSPHERE 2             
1 00902U 64063E   22344.73443541  .00000047  00000+0  57187-4 0  9998
2 00902  90.1978  47.4105 0018295   2.4758 119.4561 13.52729609682602
LCS 1                   
1 01361U 65034C   22344.42623325  .00000009  00000+0  22772-4 0  9993
2 01361  32.1460 347.4786 0011254 142.2299 217.8990  9.89302032 82653
TEMPSAT 1               
1 01512U 65065E   22344.64895759  .00000051  00000+0  85588-4 0  9992
2 01512  89.9238 217.2836 0068209 255.5474 158.6065 13.33463298788855
CALSPHERE 4A            
1 01520U 65065H   22344.82162456  .00000100  00000+0  17467-3 0  9997
2 01520  89.9810 129.9589 0070516 125.6878 332.4100 13.35920568791208
OPS 5712 (P/L 160)      
1 02826U 67053A   22344.80461607  .00003084  00000+0  78554-3 0  9992
2 02826  69.9277 235.1063 0001944 127.7120 232.4191 14.51527698878810
OPS 5712 (P/L 153)      
1 02874U 67053H   22345.42402430  .00000045  00000+0  70947-4 0  9996
2 02874  69.9740 346.0769 0004821  45.1945 314.9552 13.96432281828013
SURCAL 150B             
1 02909U 67053J   22345.40108670  .00004583  00000+0  85503-3 0  9996
2 02909  69.9457 214.3039 0002390 201.2268 158.8775 14.65601070890029
RIGIDSPHERE 2 (LCS 4)   
1 05398U 71067E   22345.12403420  .00000584  00000+0  19658-3 0  9996
2 05398  87.6206 334.2626 0063705 160.5400 199.8251 14.34419131689817
COSMOS 2493 (SKRL-756 1)
1 39490U 13078A   22345.51323159  .00002179  00000+0  22323-3 0  9992
2 39490  82.4192  64.4420 0015993 225.4135 134.5779 14.89970329486389
COSMOS 2494 (SKRL-756 2)
1 39491U 13078B   22345.58262441  .00002130  00000+0  20978-3 0  9997
2 39491  82.4192  57.7642 0021026 199.8638 160.1765 14.91464103486737
